NORAD_CAT_ID,OBJECT_NAME,OBJECT_TYPE,EPOCH,MEAN_MOTION,ECCENTRICITY,INCLINATION,RA_OF_ASC_NODE,ARG_OF_PERICENTER,MEAN_ANOMALY,BSTAR,MEAN_MOTION_DOT,MEAN_MOTION_DDOT,TLE_LINE0,TLE_LINE1,TLE_LINE2,SEMIMAJOR_AXIS,PERIOD,APOGEE,PERIGEE,DECAYED
56474.0,STARLINK-5524,PAYLOAD,2024-07-19 17:04:47,14.98337614,0.0003354,70.0006,192.3425,267.5459,92.5316,0.00026534,3.075e-05,0.0,0 STARLINK-5524,1 56474U 23064AC  24201.71165585  .00003075  00000-0  26534-3 0  9996,2 56474  70.0006 192.3425 0003354 267.5459  92.5316 14.98337614 66521,6950.169,96.107,574.365,569.703,0.0
56474.0,STARLINK-5524,PAYLOAD,2024-07-20 09:06:07,14.98338064,0.0003594,70.0,190.6608,262.5574,97.5176,-2.6024e-05,-4.04e-06,0.0,0 STARLINK-5524,1 56474U 23064AC  24202.37925231 -.00000404  00000-0 -26024-4 0  9991,2 56474  70.0000 190.6608 0003594 262.5574  97.5176 14.98338064 66268,6950.168,96.106,574.531,569.535,0.0
56474.0,STARLINK-5524,PAYLOAD,2024-07-21 05:55:52,14.98329972,0.0003558,69.9998,188.4723,265.6083,94.467,-2.6661e-05,-4.11e-06,0.0,0 STARLINK-5524,1 56474U 23064AC  24203.24713423 -.00000411  00000-0 -26661-4 0  9991,2 56474  69.9998 188.4723 0003558 265.6083  94.4670 14.98329972 66750,6950.193,96.107,574.531,569.585,0.0
56474.0,STARLINK-5524,PAYLOAD,2024-07-21 09:08:08,14.98332004,0.0003542,69.9998,188.1357,265.9909,94.0845,-6.4741e-05,-8.66e-06,0.0,0 STARLINK-5524,1 56474U 23064AC  24203.38065355 -.00000866  00000-0 -64741-4 0  9995,2 56474  69.9998 188.1357 0003542 265.9909  94.0845 14.98332004 66416,6950.187,96.107,574.513,569.59,0.0
56474.0,STARLINK-5524,PAYLOAD,2024-07-22 09:10:08,14.98333682,0.0003553,69.9997,185.6118,263.7199,96.3555,6.9856e-05,7.41e-06,0.0,0 STARLINK-5524,1 56474U 23064AC  24204.38204767  .00000741  00000-0  69856-4 0  9990,2 56474  69.9997 185.6118 0003553 263.7199  96.3555 14.98333682 66923,6950.182,96.107,574.516,569.577,0.0
56474.0,STARLINK-5524,PAYLOAD,2024-07-23 07:36:01,14.98335965,0.0003486,69.9996,183.255,264.3088,95.7673,0.00015215,1.723e-05,0.0,0 STARLINK-5524,1 56474U 23064AC  24205.31668394  .00001723  00000-0  15215-3 0  9994,2 56474  69.9996 183.2550 0003486 264.3088  95.7673 14.98335965 66701,6950.174,96.107,574.462,569.617,0.0
56474.0,STARLINK-5524,PAYLOAD,2024-07-23 20:25:06,14.98327032,0.0003177,70.0002,181.9093,265.0084,95.0712,-3.5174e-05,-5.13e-06,0.0,0 STARLINK-5524,1 56474U 23064AC  24205.85077467 -.00000513  00000-0 -35174-4 0  9993,2 56474  70.0002 181.9093 0003177 265.0084  95.0712 14.98327032 67142,6950.202,96.107,574.275,569.859,0.0
56474.0,STARLINK-5524,PAYLOAD,2024-07-24 07:38:03,14.98323019,0.0003222,70.0002,180.7311,261.4746,98.6048,-4.6656e-05,-6.5e-06,0.0,0 STARLINK-5524,1 56474U 23064AC  24206.31809802 -.00000650  00000-0 -46656-4 0  9990,2 56474  70.0002 180.7311 0003222 261.4746  98.6048 14.98323019 66857,6950.214,96.107,574.319,569.84,0.0
56474.0,STARLINK-5524,PAYLOAD,2024-07-25 04:27:47,14.98335519,0.0003323,70.0,178.5436,263.4498,96.6282,2.3203e-05,1.84e-06,0.0,0 STARLINK-5524,1 56474U 23064AC  24207.18596797  .00000184  00000-0  23203-4 0  9995,2 56474  70.0000 178.5436 0003323 263.4498  96.6282 14.98335519 67347,6950.176,96.107,574.35,569.731,0.0
56474.0,STARLINK-5524,PAYLOAD,2024-07-25 06:03:55,14.98337455,0.00033,70.0,178.3752,263.1154,96.963,4.6679e-05,4.64e-06,0.0,0 STARLINK-5524,1 56474U 23064AC  24207.25272587  .00000464  00000-0  46679-4 0  9994,2 56474  70.0000 178.3752 0003300 263.1154  96.9630 14.98337455 66998,6950.17,96.107,574.328,569.741,0.0
56474.0,STARLINK-5524,PAYLOAD,2024-07-25 22:05:16,14.98325401,0.0003403,69.9997,176.6909,265.4973,94.5797,0.00011121,1.234e-05,0.0,0 STARLINK-5524,1 56474U 23064AC  24207.92033035  .00001234  00000-0  11121-3 0  9990,2 56474  69.9997 176.6909 0003403 265.4973  94.5797 14.98325401 67091,6950.207,96.107,574.437,569.707,0.0
56474.0,STARLINK-5524,PAYLOAD,2024-07-26 04:29:48,14.98327383,0.0003392,69.9995,176.0175,264.9738,95.1034,0.00010328,1.139e-05,0.0,0 STARLINK-5524,1 56474U 23064AC  24208.18737013  .00001139  00000-0  10328-3 0  9998,2 56474  69.9995 176.0175 0003392 264.9738  95.1034 14.98327383 67494,6950.201,96.107,574.423,569.708,0.0
56474.0,STARLINK-5524,PAYLOAD,2024-07-26 07:42:04,14.98330718,0.000337,69.9997,175.6812,264.6164,95.4611,0.00013496,1.518e-05,0.0,0 STARLINK-5524,1 56474U 23064AC  24208.32088726  .00001518  00000-0  13496-3 0  9994,2 56474  69.9997 175.6812 0003370 264.6164  95.4611 14.98330718 67158,6950.191,96.107,574.398,569.713,0.0
56474.0,STARLINK-5524,PAYLOAD,2024-07-26 22:07:17,14.98333686,0.0003222,69.9999,174.1648,267.1999,92.8792,1.7527e-05,1.16e-06,0.0,0 STARLINK-5524,1 56474U 23064AC  24208.92172795  .00000116  00000-0  17527-4 0  9993,2 56474  69.9999 174.1648 0003222 267.1999  92.8792 14.98333686 67249,6950.181,96.107,574.286,569.807,0.0
56474.0,STARLINK-5524,PAYLOAD,2024-07-27 04:31:49,14.98334589,0.0003211,70.0,173.4915,267.1244,92.9548,2.8433e-05,2.46e-06,0.0,0 STARLINK-5524,1 56474U 23064AC  24209.18876640  .00000246  00000-0  28433-4 0  9994,2 56474  70.0000 173.4915 0003211 267.1244  92.9548 14.98334589 67642,6950.179,96.107,574.275,569.812,0.0
56474.0,STARLINK-5524,PAYLOAD,2024-07-27 06:07:57,14.98335439,0.0003203,70.0,173.3232,267.1372,92.942,3.7828e-05,3.58e-06,0.0,0 STARLINK-5524,1 56474U 23064AC  24209.25552537  .00000358  00000-0  37828-4 0  9990,2 56474  70.0000 173.3232 0003203 267.1372  92.9420 14.98335439 67291,6950.176,96.107,574.267,569.815,0.0
56474.0,STARLINK-5524,PAYLOAD,2024-07-27 22:09:18,14.98327751,0.0003139,70.0001,171.6401,266.9892,93.0908,-1.0672e-05,-2.2e-06,0.0,0 STARLINK-5524,1 56474U 23064AC  24209.92313067 -.00000220  00000-0 -10672-4 0  9995,2 56474  70.0001 171.6401 0003139 266.9892  93.0908 14.98327751 67395,6950.2,96.107,574.247,569.883,0.0
56474.0,STARLINK-5524,PAYLOAD,2024-07-28 04:33:50,14.98324845,0.0003051,70.0002,170.9679,267.1185,92.9625,4.2123e-06,-4.3e-07,0.0,0 STARLINK-5524,1 56474U 23064AC  24210.19017287 -.00000043  00000-0  42123-5 0  9990,2 56474  70.0002 170.9679 0003051 267.1185  92.9625 14.98324845 67795,6950.209,96.107,574.194,569.953,0.0
56474.0,STARLINK-5524,PAYLOAD,2024-07-28 14:10:39,14.98336675,0.0003146,70.0003,169.9581,269.4245,90.6553,-0.00018102,-2.253e-05,0.0,0 STARLINK-5524,1 56474U 23064AC  24210.59072976 -.00002253  00000-0 -18102-3 0  9994,2 56474  70.0003 169.9581 0003146 269.4245  90.6553 14.98336675 67859,6950.172,96.107,574.224,569.851,0.0
56474.0,STARLINK-5524,PAYLOAD,2024-07-28 22:11:19,14.98329504,0.0003125,70.0003,169.1165,270.9448,89.1353,4.2673e-06,-4.2e-07,0.0,0 STARLINK-5524,1 56474U 23064AC  24210.92453111 -.00000042  00000-0  42673-5 0  9990,2 56474  70.0003 169.1165 0003125 270.9448  89.1353 14.98329504 67548,6950.194,96.107,574.231,569.887,0.0
56474.0,STARLINK-5524,PAYLOAD,2024-07-29 07:48:07,14.98333238,0.00031,70.0002,168.107,268.3174,91.763,3.2421e-05,2.94e-06,0.0,0 STARLINK-5524,1 56474U 23064AC  24211.32508781  .00000294  00000-0  32421-4 0  9996,2 56474  70.0002 168.1070 0003100 268.3174  91.7630 14.98333238 67604,6950.183,96.107,574.202,569.893,0.0
56474.0,STARLINK-5524,PAYLOAD,2024-07-29 14:12:39,14.98331377,0.0003102,70.0003,167.4339,267.169,92.9115,3.8637e-05,3.68e-06,0.0,0 STARLINK-5524,1 56474U 23064AC  24211.59212862  .00000368  00000-0  38637-4 0  9994,2 56474  70.0003 167.4339 0003102 267.1690  92.9115 14.98331377 68005,6950.189,96.107,574.21,569.898,0.0
56474.0,STARLINK-5524,PAYLOAD,2024-07-29 22:13:20,14.98328921,0.0003125,70.0002,166.5922,267.3452,92.7349,9.9991e-05,1.1e-05,0.0,0 STARLINK-5524,1 56474U 23064AC  24211.92592849  .00001100  00000-0  99991-4 0  9992,2 56474  70.0002 166.5922 0003125 267.3452  92.7349 14.98328921 67697,6950.196,96.107,574.233,569.889,0.0
56474.0,STARLINK-5524,PAYLOAD,2024-07-30 14:14:40,14.98332176,0.0003109,70.0002,164.909,268.9578,91.1225,9.7796e-05,1.074e-05,0.0,0 STARLINK-5524,1 56474U 23064AC  24212.59352630  .00001074  00000-0  97796-4 0  9999,2 56474  70.0002 164.9090 0003109 268.9578  91.1225 14.98332176 67797,6950.186,96.107,574.212,569.89,0.0
56474.0,STARLINK-5524,PAYLOAD,2024-07-30 20:39:13,14.98327818,0.0003042,70.0003,164.2363,269.8314,90.2496,4.7483e-06,-3.6e-07,0.0,0 STARLINK-5524,1 56474U 23064AC  24212.86057194 -.00000036  00000-0  47483-5 0  9993,2 56474  70.0003 164.2363 0003042 269.8314  90.2496 14.98327818 68190,6950.2,96.107,574.179,569.95,0.0
56474.0,STARLINK-5524,PAYLOAD,2024-07-30 22:15:21,14.98327806,0.0003048,70.0003,164.0679,269.7838,90.2972,4.4708e-06,-4e-07,0.0,0 STARLINK-5524,1 56474U 23064AC  24212.92733193 -.00000040  00000-0  44708-5 0  9992,2 56474  70.0003 164.0679 0003048 269.7838  90.2972 14.98327806 67841,6950.2,96.107,574.183,569.946,0.0
56474.0,STARLINK-5524,PAYLOAD,2024-07-31 14:16:41,14.98331407,0.00031,70.0002,162.384,269.2032,90.8772,-3.451e-06,-1.34e-06,0.0,0 STARLINK-5524,1 56474U 23064AC  24213.59492871 -.00000134  00000-0 -34510-5 0  9996,2 56474  70.0002 162.3840 0003100 269.2032  90.8772 14.98331407 67948,6950.189,96.107,574.208,569.899,0.0
56474.0,STARLINK-5524,PAYLOAD,2024-07-31 20:41:14,14.98327977,0.0003065,70.0003,161.7111,269.3943,90.6865,-2.1158e-05,-3.45e-06,0.0,0 STARLINK-5524,1 56474U 23064AC  24213.86197179 -.00000345  00000-0 -21158-4 0  9996,2 56474  70.0003 161.7111 0003065 269.3943  90.6865 14.98327977 68348,6950.199,96.107,574.194,569.934,0.0
56474.0,STARLINK-5524,PAYLOAD,2024-07-31 22:17:22,14.98328817,0.0003032,70.0004,161.5432,268.9823,91.0989,-1.9677e-05,-3.28e-06,0.0,0 STARLINK-5524,1 56474U 23064AC  24213.92873133 -.00000328  00000-0 -19677-4 0  9998,2 56474  70.0004 161.5432 0003032 268.9823  91.0989 14.98328817 67995,6950.197,96.107,574.169,569.954,0.0
56474.0,STARLINK-5524,PAYLOAD,2024-08-01 04:41:54,14.98335262,0.0003062,69.9999,160.8693,269.583,90.4978,1.1686e-05,4.6e-07,0.0,0 STARLINK-5524,1 56474U 23064AC  24214.19576611  .00000046  00000-0  11686-4 0  9996,2 56474  69.9999 160.8693 0003062 269.5830  90.4978 14.98335262 68392,6950.177,96.107,574.17,569.913,0.0
